{
  "norad_id": 52882,
  "name": "STARLINK-4181",
  "history": [
    {
      "epoch": "2026-03-28T19:32:37.134816Z",
      "apogee_km": 540.7883195405839,
      "perigee_km": 538.6898510088768,
      "latitude_deg": 4.635910308924422e-05,
      "longitude_deg": 168.45594105111627,
      "height_km": 540.7154098450977,
      "semi_major_axis_km": 6917.87608527473,
      "eccentricity": 0.00015167,
      "inclination_deg": 53.2165,
      "raan_deg": 287.84,
      "arg_perigee_deg": 94.424,
      "mean_anomaly_deg": 265.6926,
      "mean_motion_rev_day": 15.08841408
    }
  ]
}